{
"type": "FeatureCollection",
"features": [
{
  "type": "Feature",
  "id": "node/697250228",
  "properties": {
    "access": "yes",
    "defibrillator:location": "An Wand seitlich vom Eingang",
    "emergency": "defibrillator",
    "emergency:phone": "144",
    "opening_hours": "24/7",
    "source": "survey",
    "wheelchair": "yes",
    "id": "node/697250228"
  },
  "geometry": {
    "type": "Point",
    "coordinates": [
      7.5081349,
      47.1611969
    ]
  }
},
{
  "type": "Feature",
  "id": "node/4171975608",
  "properties": {
    "access": "yes",
    "emergency": "defibrillator",
    "emergency:phone": "144",
    "level": "0",
    "opening_hours": "24/7",
    "operator": "Seilpark Balmberg",
    "phone": "+41 32 637 14 14",
    "website": "https://seilpark-balmberg.ch",
    "id": "node/4171975608"
  },
  "geometry": {
    "type": "Point",
    "coordinates": [
      7.541752,
      47.266444
    ]
  }
},
{
  "type": "Feature",
  "id": "node/4745081017",
  "properties": {
    "emergency": "defibrillator",
    "emergency:phone": "144",
    "id": "node/4745081017"
  },
  "geometry": {
    "type": "Point",
    "coordinates": [
      7.543505,
      47.2043418
    ]
  }
},
{
  "type": "Feature",
  "id": "node/4745088306",
  "properties": {
    "emergency": "defibrillator",
    "emergency:phone": "144",
    "phone": "+41 32 671 12 12",
    "id": "node/4745088306"
  },
  "geometry": {
    "type": "Point",
    "coordinates": [
      7.5565722,
      47.1814942
    ]
  }
},
{
  "type": "Feature",
  "id": "node/5522790039",
  "properties": {
    "emergency": "defibrillator",
    "emergency:phone": "144",
    "indoor": "no",
    "id": "node/5522790039"
  },
  "geometry": {
    "type": "Point",
    "coordinates": [
      7.523567,
      47.1981005
    ]
  }
},
{
  "type": "Feature",
  "id": "node/6020113648",
  "properties": {
    "emergency": "defibrillator",
    "emergency:phone": "144",
    "id": "node/6020113648"
  },
  "geometry": {
    "type": "Point",
    "coordinates": [
      7.4902585,
      47.4764153
    ]
  }
},
{
  "type": "Feature",
  "id": "node/6228897704",
  "properties": {
    "access": "no",
    "addr:city": "Hägendorf",
    "addr:housenumber": "11",
    "addr:postcode": "4614",
    "addr:street": "Bachstrasse",
    "amenity": "library",
    "contact:email": "bibliothek@haegendorf.ch",
    "contact:phone": "+41 78 926 25 48",
    "contact:website": "http://www.haegendorf.ch/de/vereinekultur/bibliothek/",
    "defibrillator:location": "Gangbereich vor Küchennische",
    "description": "während Öffnungszeiten verfügbar",
    "emergency": "defibrillator",
    "emergency:phone": "144",
    "indoor": "yes",
    "name": "Gemeindebibliothek",
    "operator": "Gemeinde Hägendorf;Einwohnergemeinde Hägendorf",
    "phone": "+41 62 209 17 12",
    "id": "node/6228897704"
  },
  "geometry": {
    "type": "Point",
    "coordinates": [
      7.8438272,
      47.3326356
    ]
  }
},
{
  "type": "Feature",
  "id": "node/6532311690",
  "properties": {
    "access": "permissive",
    "defibrillator:location": "Beim Empfang VSL Schweiz",
    "emergency": "defibrillator",
    "emergency:phone": "144",
    "opening_hours": "Mo-Fr 07:30-17:00",
    "operator": "VSL Schweiz AG",
    "phone": "+41 58 456 30 40",
    "id": "node/6532311690"
  },
  "geometry": {
    "type": "Point",
    "coordinates": [
      7.6098072,
      47.1962282
    ]
  }
},
{
  "type": "Feature",
  "id": "node/6532311692",
  "properties": {
    "access": "permissive",
    "addr:city": "Deitingen",
    "addr:housenumber": "22",
    "addr:postcode": "4543",
    "addr:street": "Grabmattstrasse",
    "defibrillator:location": "Im Clubhaus des FC Deitingen",
    "emergency": "defibrillator",
    "emergency:phone": "144",
    "indoor": "yes",
    "opening_hours": "unknown",
    "operator": "Einwohnergemeinde Deitingen",
    "id": "node/6532311692"
  },
  "geometry": {
    "type": "Point",
    "coordinates": [
      7.6119556,
      47.2163944
    ]
  }
},
{
  "type": "Feature",
  "id": "node/6532311693",
  "properties": {
    "access": "permissive",
    "addr:city": "Deitingen",
    "addr:housenumber": "10",
    "addr:postcode": "4543",
    "addr:street": "Schulhausstrasse",
    "defibrillator:location": "In der Zweienhalle, Im Eingangsbereich",
    "emergency": "defibrillator",
    "emergency:phone": "144",
    "indoor": "yes",
    "operator": "Einwohnergemeinde Deitingen",
    "phone": "+41 76 570 1579",
    "id": "node/6532311693"
  },
  "geometry": {
    "type": "Point",
    "coordinates": [
      7.6213811,
      47.2116098
    ]
  }
},
{
  "type": "Feature",
  "id": "node/6532311694",
  "properties": {
    "access": "yes",
    "addr:city": "Deitingen",
    "addr:housenumber": "1",
    "addr:postcode": "4543",
    "addr:street": "Wangenstrasse",
    "defibrillator:location": "Aussen beim Gemeindehaus",
    "emergency": "defibrillator",
    "emergency:phone": "144",
    "opening_hours": "24/7",
    "operator": "Einwohnergemeinde Deitingen",
    "outdoor": "yes",
    "phone": "+41 76 570 1579",
    "id": "node/6532311694"
  },
  "geometry": {
    "type": "Point",
    "coordinates": [
      7.619284,
      47.212281
    ]
  }
},
{
  "type": "Feature",
  "id": "node/6532327368",
  "properties": {
    "access": "yes",
    "addr:city": "Burgäschi",
    "addr:housenumber": "26",
    "addr:postcode": "4556",
    "addr:street": "Hauptstrasse",
    "defibrillator:location": "neben Restaurant, bei Eingang Srandbad",
    "emergency": "defibrillator",
    "emergency:phone": "144",
    "opening_hours": "24/7",
    "operator": "Strandbad Burgäshisee",
    "phone": "+41 62 955 70 80",
    "id": "node/6532327368"
  },
  "geometry": {
    "type": "Point",
    "coordinates": [
      7.6711825,
      47.1708655
    ]
  }
},
{
  "type": "Feature",
  "id": "node/6546027575",
  "properties": {
    "access": "yes",
    "defibrillator:location": "Seiteneingang Fachhochschule Nordwestschweiz FHNW",
    "emergency": "defibrillator",
    "emergency:phone": "144",
    "indoor": "yes",
    "level": "0",
    "opening_hours": "Mo-Fr 07:00-21:00; Sa 07:00-18:00",
    "operator": "Fachhochschule Nordwestschweiz FHNW",
    "phone": "+41 84 882 10 11",
    "wheelchair": "yes",
    "id": "node/6546027575"
  },
  "geometry": {
    "type": "Point",
    "coordinates": [
      7.9080043,
      47.3479338
    ]
  }
},
{
  "type": "Feature",
  "id": "node/6611866878",
  "properties": {
    "access": "yes",
    "emergency": "defibrillator",
    "emergency:phone": "144",
    "location": "outdoor",
    "id": "node/6611866878"
  },
  "geometry": {
    "type": "Point",
    "coordinates": [
      7.646601,
      47.1573599
    ]
  }
},
{
  "type": "Feature",
  "id": "node/6629821167",
  "properties": {
    "access": "permissive",
    "addr:city": "Zuchwil",
    "addr:housenumber": "14",
    "addr:postcode": "4528",
    "addr:street": "Industriestrasse",
    "defibrillator:location": "Hinter Fronttüre im Treppenhaus",
    "emergency": "defibrillator",
    "emergency:phone": "144",
    "opening_hours": "Mo-Fr 07:30-18:00",
    "operator": "DePuy Synthes",
    "phone": "+41 32 720 7972",
    "id": "node/6629821167"
  },
  "geometry": {
    "type": "Point",
    "coordinates": [
      7.5615515,
      47.2081866
    ]
  }
},
{
  "type": "Feature",
  "id": "node/6629821168",
  "properties": {
    "access": "permissive",
    "addr:city": "Deitingen",
    "addr:housenumber": "22",
    "addr:postcode": "4543",
    "addr:street": "Grabmattstrasse",
    "defibrillator:location": "Clubhaus FC Deitingen, nur während des Trainings und der Spiele verfügbar",
    "emergency": "defibrillator",
    "emergency:phone": "144",
    "operator": "Einwohnergemeinde Deitingen / Im Clubhaus des FC Deitingen",
    "phone": "+41 76 570 1579",
    "id": "node/6629821168"
  },
  "geometry": {
    "type": "Point",
    "coordinates": [
      7.6129967,
      47.2163204
    ]
  }
},
{
  "type": "Feature",
  "id": "node/6715019540",
  "properties": {
    "access": "yes",
    "emergency": "defibrillator",
    "emergency:phone": "144",
    "level": "0",
    "opening_hours": "24/7",
    "website": "http://defibrillator.ch/",
    "wheelchair": "yes",
    "id": "node/6715019540"
  },
  "geometry": {
    "type": "Point",
    "coordinates": [
      7.9102246,
      47.3512779
    ]
  }
},
{
  "type": "Feature",
  "id": "node/6721750676",
  "properties": {
    "access": "yes",
    "emergency": "defibrillator",
    "emergency:phone": "144",
    "operator": "Gemeinde Aeschi",
    "phone": "+41 62 9557080",
    "wheelchair": "yes",
    "id": "node/6721750676"
  },
  "geometry": {
    "type": "Point",
    "coordinates": [
      7.6589651,
      47.1796096
    ]
  }
},
{
  "type": "Feature",
  "id": "node/7281021204",
  "properties": {
    "access": "yes",
    "defibrillator:location": "Martin-Disteli-Unterführung Bahnhof Olten",
    "description": "In Unterführung",
    "emergency": "defibrillator",
    "emergency:phone": "144",
    "indoor": "yes",
    "level": "-1",
    "opening_hours": "24/7",
    "wheelchair": "yes",
    "id": "node/7281021204"
  },
  "geometry": {
    "type": "Point",
    "coordinates": [
      7.9073316,
      47.3515712
    ]
  }
}
]
}
