{
"type": "FeatureCollection",
"features": [
{
  "type": "Feature",
  "id": "node/7813190773",
  "properties": {
    "access": "private",
    "defibrillator:location": "Der Defi befindet sich im Eingangsbereich in einem Notfallschrank mit dem Rettungszeichen versehen.",
    "description": "während Öffnungszeiten verfügbar",
    "emergency": "defibrillator",
    "indoor": "yes",
    "operator": "update Fitness",
    "phone": "144",
    "id": "node/7813190773"
  },
  "geometry": {
    "type": "Point",
    "coordinates": [
      9.5100296,
      47.1546693
    ]
  }
},
{
  "type": "Feature",
  "id": "node/8842630421",
  "properties": {
    "access": "no",
    "defibrillator:location": "Tennishalle Schaanerstrasse 42",
    "description": "Ende September-Ende April im Gang zwischen den Hallen",
    "emergency": "defibrillator",
    "emergency:phone": "144",
    "indoor": "yes",
    "opening_hours": "Mo-Fr 08:00-22:00",
    "operator": "Tennisclub Vaduz",
    "id": "node/8842630421"
  },
  "geometry": {
    "type": "Point",
    "coordinates": [
      9.5069115,
      47.1510812
    ]
  }
},
{
  "type": "Feature",
  "id": "node/9004556003",
  "properties": {
    "access": "yes",
    "defibrillator:location": "Garderobe Gemeindesaal",
    "description": "während Öffnungszeiten verfügbar",
    "emergency": "defibrillator",
    "emergency:phone": "144",
    "indoor": "yes",
    "operator": "Wolfgang Schädler, Hausdienst",
    "phone": "+423 792 26 69",
    "id": "node/9004556003"
  },
  "geometry": {
    "type": "Point",
    "coordinates": [
      9.5427847,
      47.1182506
    ]
  }
},
{
  "type": "Feature",
  "id": "node/9004556006",
  "properties": {
    "access": "yes",
    "defibrillator:location": "in Sakristei",
    "description": "während Öffnungszeiten verfügbar",
    "emergency": "defibrillator",
    "emergency:phone": "144",
    "indoor": "yes",
    "opening_hours": "Mo-Fr 08:00-12:00, 13:30-17:00",
    "operator": "U. Vogt",
    "phone": "+41 79 698 93 11",
    "id": "node/9004556006"
  },
  "geometry": {
    "type": "Point",
    "coordinates": [
      9.5022404,
      47.0652987
    ]
  }
},
{
  "type": "Feature",
  "id": "node/9004556007",
  "properties": {
    "access": "yes",
    "defibrillator:location": "Haupteingang / EVAK",
    "description": "während Öffnungszeiten verfügbar",
    "emergency": "defibrillator",
    "emergency:phone": "144",
    "indoor": "yes",
    "opening_hours": "Mo-Fr 08:00-12:00, 13:30-17:00",
    "operator": "H. Vogt",
    "phone": "+41 78 757 90 33",
    "id": "node/9004556007"
  },
  "geometry": {
    "type": "Point",
    "coordinates": [
      9.5015967,
      47.0669576
    ]
  }
},
{
  "type": "Feature",
  "id": "node/9004556008",
  "properties": {
    "access": "yes",
    "defibrillator:location": "Gemeindesaal im Foyer",
    "description": "während Öffnungszeiten verfügbar",
    "emergency": "defibrillator",
    "emergency:phone": "144",
    "indoor": "yes",
    "opening_hours": "Mo-Fr 08:00-12:00, 13:30-17:00",
    "operator": "Franco Rotunno",
    "phone": "+41 79 344 59 16",
    "id": "node/9004556008"
  },
  "geometry": {
    "type": "Point",
    "coordinates": [
      9.5023155,
      47.0667895
    ]
  }
},
{
  "type": "Feature",
  "id": "node/9004556009",
  "properties": {
    "access": "yes",
    "defibrillator:location": "Turnhalle - Korridor",
    "description": "während Öffnungszeiten verfügbar",
    "emergency": "defibrillator",
    "emergency:phone": "144",
    "indoor": "yes",
    "opening_hours": "Mo-Fr 08:00-12:00, 13:30-17:00",
    "operator": "G. Wolfinger",
    "phone": "+41 79 634 07 87",
    "id": "node/9004556009"
  },
  "geometry": {
    "type": "Point",
    "coordinates": [
      9.5020473,
      47.067513
    ]
  }
},
{
  "type": "Feature",
  "id": "node/9004556010",
  "properties": {
    "access": "yes",
    "defibrillator:location": "Bademeisterkabine",
    "description": "während Öffnungszeiten verfügbar",
    "emergency": "defibrillator",
    "emergency:phone": "144",
    "indoor": "yes",
    "opening_hours": "Mo-Fr 08:00-22:00",
    "operator": "C.Kaufmann",
    "phone": "+41 78 802 10 79",
    "id": "node/9004556010"
  },
  "geometry": {
    "type": "Point",
    "coordinates": [
      9.5027715,
      47.0674838
    ]
  }
},
{
  "type": "Feature",
  "id": "node/9004556011",
  "properties": {
    "access": "yes",
    "defibrillator:location": "Haupteingang",
    "description": "während Öffnungszeiten verfügbar",
    "emergency": "defibrillator",
    "emergency:phone": "144",
    "indoor": "yes",
    "opening_hours": "Mo-Fr 08:00-12:00, 13:30-17:00",
    "operator": "S. Yousufi",
    "phone": "+41 79 639 33 13",
    "id": "node/9004556011"
  },
  "geometry": {
    "type": "Point",
    "coordinates": [
      9.4953606,
      47.0733297
    ]
  }
},
{
  "type": "Feature",
  "id": "node/9004556013",
  "properties": {
    "defibrillator:location": "Pfarrkirche Eingang links an Wand",
    "description": "während Öffnungszeiten verfügbar",
    "emergency": "defibrillator",
    "emergency:phone": "144",
    "indoor": "yes",
    "opening_hours": "Mo-Fr 08:00-12:00, 13:30-17:00",
    "operator": "Faustino Navarro, Gemeindepolizei",
    "phone": "+423 792 36 42",
    "id": "node/9004556013"
  },
  "geometry": {
    "type": "Point",
    "coordinates": [
      9.5302078,
      47.1064055
    ]
  }
},
{
  "type": "Feature",
  "id": "node/9004556014",
  "properties": {
    "defibrillator:location": "LAK Haus, Sekretariat",
    "emergency": "defibrillator",
    "emergency:phone": "144",
    "indoor": "yes",
    "opening_hours": "Mo-Su 09:00-18:00",
    "operator": "Sekretariat",
    "phone": "+423 399 15 00",
    "id": "node/9004556014"
  },
  "geometry": {
    "type": "Point",
    "coordinates": [
      9.5253959,
      47.1044959
    ]
  }
},
{
  "type": "Feature",
  "id": "node/9004556015",
  "properties": {
    "access": "yes",
    "defibrillator:location": "Im Schuleingang vor dem Sekretariat",
    "description": "während Öffnungszeiten verfügbar",
    "emergency": "defibrillator",
    "emergency:phone": "144",
    "indoor": "yes",
    "opening_hours": "Mo-Fr 08:00-12:00, 13:30-17:00",
    "operator": "Hauswart",
    "phone": "+423 399 21 90",
    "id": "node/9004556015"
  },
  "geometry": {
    "type": "Point",
    "coordinates": [
      9.526611,
      47.1053813
    ]
  }
},
{
  "type": "Feature",
  "id": "node/9004556016",
  "properties": {
    "access": "yes",
    "defibrillator:location": "Bademeisterkabine",
    "description": "während Öffnungszeiten verfügbar",
    "emergency": "defibrillator",
    "emergency:phone": "144",
    "indoor": "yes",
    "opening_hours": "Mo-Fr 08:00-12:00, 13:30-17:00",
    "operator": "Bademeister",
    "phone": "+423 392 34 94",
    "id": "node/9004556016"
  },
  "geometry": {
    "type": "Point",
    "coordinates": [
      9.5260477,
      47.1057958
    ]
  }
},
{
  "type": "Feature",
  "id": "node/9004557418",
  "properties": {
    "defibrillator:location": "Gemeindesaal Nebenraum",
    "description": "während Öffnungszeiten verfügbar",
    "emergency": "defibrillator",
    "emergency:phone": "144",
    "indoor": "yes",
    "opening_hours": "Mo-Fr 08:00-12:00, 13:30-17:00",
    "operator": "Faustino Navarro, Gemeindepolizei",
    "id": "node/9004557418"
  },
  "geometry": {
    "type": "Point",
    "coordinates": [
      9.5235667,
      47.1100987
    ]
  }
},
{
  "type": "Feature",
  "id": "node/9004557420",
  "properties": {
    "access": "yes",
    "defibrillator:location": "Haupteingang rechts",
    "description": "während Öffnungszeiten verfügbar",
    "emergency": "defibrillator",
    "emergency:phone": "144",
    "indoor": "yes",
    "opening_hours": "Mo-Fr 07:00-17:00",
    "operator": "Anmeldung",
    "phone": "+423 399 55 11",
    "id": "node/9004557420"
  },
  "geometry": {
    "type": "Point",
    "coordinates": [
      9.5215684,
      47.1093264
    ]
  }
},
{
  "type": "Feature",
  "id": "node/9004557422",
  "properties": {
    "access": "yes",
    "defibrillator:location": "Haupteingang EG links",
    "description": "während Öffnungszeiten verfügbar",
    "emergency": "defibrillator",
    "emergency:phone": "144",
    "indoor": "yes",
    "opening_hours": "Mo-Fr 08:00-12:00, 13:30-17:00",
    "operator": "Büchel Willi, Hausdienst",
    "phone": "+423 236 75 43",
    "id": "node/9004557422"
  },
  "geometry": {
    "type": "Point",
    "coordinates": [
      9.5195675,
      47.119959
    ]
  }
},
{
  "type": "Feature",
  "id": "node/9004557423",
  "properties": {
    "access": "yes",
    "defibrillator:location": "Haupteingang EG",
    "description": "während Öffnungszeiten verfügbar",
    "emergency": "defibrillator",
    "emergency:phone": "144",
    "indoor": "yes",
    "opening_hours": "Mo-Fr 08:00-11:30, 13:30-17:00",
    "operator": "Karin Pirchler",
    "phone": "+423 236 60 37",
    "id": "node/9004557423"
  },
  "geometry": {
    "type": "Point",
    "coordinates": [
      9.5241353,
      47.1234905
    ]
  }
},
{
  "type": "Feature",
  "id": "node/9004557424",
  "properties": {
    "access": "yes",
    "defibrillator:location": "in den Fahrzeugen",
    "emergency": "defibrillator",
    "emergency:phone": "144",
    "indoor": "yes",
    "id": "node/9004557424"
  },
  "geometry": {
    "type": "Point",
    "coordinates": [
      9.5218608,
      47.1263466
    ]
  }
},
{
  "type": "Feature",
  "id": "node/9004557426",
  "properties": {
    "access": "yes",
    "defibrillator:location": "Eingang Schulungsgebäude",
    "description": "während Öffnungszeiten verfügbar",
    "emergency": "defibrillator",
    "emergency:phone": "144",
    "indoor": "yes",
    "opening_hours": "Mo-Fr 08:00-12:00, 13:30-17:00",
    "operator": "Ewald Walch",
    "phone": "+423 236 69 20",
    "id": "node/9004557426"
  },
  "geometry": {
    "type": "Point",
    "coordinates": [
      9.5144606,
      47.1319562
    ]
  }
},
{
  "type": "Feature",
  "id": "node/9004557427",
  "properties": {
    "access": "yes",
    "defibrillator:location": "Bauverwaltung Vaduz / LRK Hauptsitz",
    "description": "während Öffnungszeiten verfügbar",
    "emergency": "defibrillator",
    "emergency:phone": "144",
    "indoor": "yes",
    "opening_hours": "Mo-Fr 08:00-12:00, 13:30-17:00",
    "operator": "Thobias Volmar",
    "phone": "+423 789 78 50",
    "id": "node/9004557427"
  },
  "geometry": {
    "type": "Point",
    "coordinates": [
      9.5136559,
      47.1328467
    ]
  }
},
{
  "type": "Feature",
  "id": "node/9004557428",
  "properties": {
    "access": "yes",
    "defibrillator:location": "Bürohaus beim Empfang 2.OG",
    "description": "während Öffnungszeiten verfügbar",
    "emergency": "defibrillator",
    "emergency:phone": "144",
    "indoor": "yes",
    "opening_hours": "Mo-Fr 08:00-12:00, 13:30-17:00",
    "operator": "Uwe Negele",
    "phone": "+423 236 71 79",
    "id": "node/9004557428"
  },
  "geometry": {
    "type": "Point",
    "coordinates": [
      9.5223704,
      47.1332444
    ]
  }
},
{
  "type": "Feature",
  "id": "node/9004557430",
  "properties": {
    "access": "yes",
    "defibrillator:location": "Haupteingang Empfang",
    "description": "während Öffnungszeiten verfügbar",
    "emergency": "defibrillator",
    "emergency:phone": "144",
    "indoor": "yes",
    "opening_hours": "Mo-Fr 08:00-12:00, 13:30-17:00",
    "operator": "Monika Wetter",
    "phone": "+423 236 76 25",
    "id": "node/9004557430"
  },
  "geometry": {
    "type": "Point",
    "coordinates": [
      9.521952,
      47.1358847
    ]
  }
},
{
  "type": "Feature",
  "id": "node/9004557431",
  "properties": {
    "access": "yes",
    "defibrillator:location": "Eingang 1.OG",
    "description": "während Öffnungszeiten verfügbar",
    "emergency": "defibrillator",
    "emergency:phone": "144",
    "indoor": "yes",
    "opening_hours": "Mo-Fr 08:00-12:00, 13:30-17:00",
    "operator": "Sekretariat Zentrale",
    "phone": "+423 236 64 00",
    "id": "node/9004557431"
  },
  "geometry": {
    "type": "Point",
    "coordinates": [
      9.5190766,
      47.1374429
    ]
  }
},
{
  "type": "Feature",
  "id": "node/9004557432",
  "properties": {
    "access": "yes",
    "defibrillator:location": "Haupteingang kleines Lager",
    "description": "während Öffnungszeiten verfügbar",
    "emergency": "defibrillator",
    "emergency:phone": "144",
    "indoor": "yes",
    "opening_hours": "Mo-Fr 08:00-12:00, 13:30-17:00",
    "operator": "Rainer Oseplt, Techniker",
    "phone": "+423 789 78 28",
    "id": "node/9004557432"
  },
  "geometry": {
    "type": "Point",
    "coordinates": [
      9.5188701,
      47.1385048
    ]
  }
},
{
  "type": "Feature",
  "id": "node/9004557433",
  "properties": {
    "access": "yes",
    "defibrillator:location": "Haupteingang EG",
    "description": "während Öffnungszeiten verfügbar",
    "emergency": "defibrillator",
    "emergency:phone": "144",
    "indoor": "yes",
    "opening_hours": "Mo-Fr 08:00-12:00, 13:30-17:00",
    "operator": "Sandra Frick",
    "phone": "+423 236 69 26",
    "id": "node/9004557433"
  },
  "geometry": {
    "type": "Point",
    "coordinates": [
      9.5230785,
      47.1365963
    ]
  }
},
{
  "type": "Feature",
  "id": "node/9004557435",
  "properties": {
    "access": "yes",
    "defibrillator:location": "Haupteingang EG",
    "description": "während Öffnungszeiten verfügbar",
    "emergency": "defibrillator",
    "emergency:phone": "144",
    "indoor": "yes",
    "opening_hours": "Mo-Fr 08:00-12:00, 13:30-17:00",
    "operator": "Telefonzentrale",
    "phone": "+423 236 61 11",
    "id": "node/9004557435"
  },
  "geometry": {
    "type": "Point",
    "coordinates": [
      9.5226791,
      47.1370697
    ]
  }
},
{
  "type": "Feature",
  "id": "node/9004557437",
  "properties": {
    "access": "yes",
    "defibrillator:location": "Haupteingang LLV, EG",
    "description": "während Öffnungszeiten verfügbar",
    "emergency": "defibrillator",
    "emergency:phone": "144",
    "indoor": "yes",
    "opening_hours": "Mo-Fr 08:00-12:00, 13:30-17:00",
    "operator": "Timo Keckeis",
    "phone": "+423 236 62 73",
    "id": "node/9004557437"
  },
  "geometry": {
    "type": "Point",
    "coordinates": [
      9.5219533,
      47.138492
    ]
  }
},
{
  "type": "Feature",
  "id": "node/9004557438",
  "properties": {
    "access": "yes",
    "defibrillator:location": "Haupteingang West",
    "description": "während Öffnungszeiten verfügbar",
    "emergency": "defibrillator",
    "emergency:phone": "144",
    "indoor": "yes",
    "opening_hours": "Mo-Fr 08:00-12:00, 13:30-17:00",
    "operator": "Markus Heeb, Hausdienst",
    "phone": "+423 233 40 58",
    "id": "node/9004557438"
  },
  "geometry": {
    "type": "Point",
    "coordinates": [
      9.5217951,
      47.1390421
    ]
  }
},
{
  "type": "Feature",
  "id": "node/9004557439",
  "properties": {
    "access": "yes",
    "defibrillator:location": "Haupteingang Nordgebäude",
    "description": "während Öffnungszeiten verfügbar",
    "emergency": "defibrillator",
    "emergency:phone": "144",
    "indoor": "yes",
    "opening_hours": "Mo-Fr 08:00-12:00, 13:30-17:00",
    "operator": "Mario Riezler",
    "phone": "+423 789 78 39",
    "id": "node/9004557439"
  },
  "geometry": {
    "type": "Point",
    "coordinates": [
      9.5106679,
      47.1407051
    ]
  }
},
{
  "type": "Feature",
  "id": "node/9004557440",
  "properties": {
    "access": "yes",
    "defibrillator:location": "Haupteingang Ostgebäude",
    "description": "während Öffnungszeiten verfügbar",
    "emergency": "defibrillator",
    "emergency:phone": "144",
    "indoor": "yes",
    "opening_hours": "Mo-Fr 08:00-12:00, 13:30-17:00",
    "operator": "Mario Riezler",
    "phone": "+423 789 78 39",
    "id": "node/9004557440"
  },
  "geometry": {
    "type": "Point",
    "coordinates": [
      9.5097989,
      47.1411284
    ]
  }
},
{
  "type": "Feature",
  "id": "node/9004557442",
  "properties": {
    "access": "yes",
    "defibrillator:location": "Theorieraum",
    "emergency": "defibrillator",
    "emergency:phone": "144",
    "indoor": "yes",
    "operator": "Peter Saler",
    "phone": "+41 79 628 21 24",
    "id": "node/9004557442"
  },
  "geometry": {
    "type": "Point",
    "coordinates": [
      9.5113304,
      47.147041
    ]
  }
},
{
  "type": "Feature",
  "id": "node/9004557444",
  "properties": {
    "access": "yes",
    "defibrillator:location": "Zentrale Servicestelle",
    "description": "während Öffnungszeiten verfügbar",
    "emergency": "defibrillator",
    "emergency:phone": "144",
    "indoor": "yes",
    "opening_hours": "Mo-Fr 07:00-22:00",
    "operator": "Kurt Hasler",
    "phone": "+423 265 12 38",
    "id": "node/9004557444"
  },
  "geometry": {
    "type": "Point",
    "coordinates": [
      9.5164883,
      47.1493085
    ]
  }
},
{
  "type": "Feature",
  "id": "node/9004557445",
  "properties": {
    "access": "yes",
    "defibrillator:location": "Sanitätsraum Erdgeschoss",
    "description": "während Öffnungszeiten verfügbar",
    "emergency": "defibrillator",
    "emergency:phone": "144",
    "indoor": "yes",
    "opening_hours": "Mo-Fr 08:00-12:00, 13:30-17:00",
    "operator": "Wolfgang Hasler",
    "phone": "+423 789 78 30",
    "id": "node/9004557445"
  },
  "geometry": {
    "type": "Point",
    "coordinates": [
      9.5163381,
      47.1499031
    ]
  }
},
{
  "type": "Feature",
  "id": "node/9004557446",
  "properties": {
    "access": "yes",
    "defibrillator:location": "FMA, Kundenempfang",
    "description": "während Öffnungszeiten verfügbar",
    "emergency": "defibrillator",
    "emergency:phone": "144",
    "indoor": "yes",
    "opening_hours": "Mo-Fr 07:00-12:00, 13:30-17:00",
    "operator": "Heinz Schädler, Hausdienst",
    "phone": "+423 236 62 35",
    "id": "node/9004557446"
  },
  "geometry": {
    "type": "Point",
    "coordinates": [
      9.5109495,
      47.1516141
    ]
  }
},
{
  "type": "Feature",
  "id": "node/9004557447",
  "properties": {
    "access": "yes",
    "defibrillator:location": "Sanitätsraum Schwimmbad",
    "description": "während Öffnungszeiten verfügbar",
    "emergency": "defibrillator",
    "emergency:phone": "144",
    "indoor": "yes",
    "opening_hours": "Mo-Fr 08:00-22:00",
    "operator": "René Ott, Bademeister",
    "phone": "+423 232 24 77",
    "id": "node/9004557447"
  },
  "geometry": {
    "type": "Point",
    "coordinates": [
      9.5061994,
      47.152528
    ]
  }
},
{
  "type": "Feature",
  "id": "node/9004557448",
  "properties": {
    "access": "yes",
    "defibrillator:location": "Konrad Hanno",
    "description": "während Öffnungszeiten verfügbar",
    "emergency": "defibrillator",
    "emergency:phone": "144",
    "indoor": "yes",
    "opening_hours": "Mo-Fr 07:00-12:00, 13:30-17:00",
    "operator": "Edelgard Schurte",
    "phone": "+423 237 72 44",
    "id": "node/9004557448"
  },
  "geometry": {
    "type": "Point",
    "coordinates": [
      9.5081292,
      47.1576578
    ]
  }
},
{
  "type": "Feature",
  "id": "node/9004557450",
  "properties": {
    "access": "yes",
    "defibrillator:location": "Eingang zum Gemeindezentrum",
    "description": "während Öffnungszeiten verfügbar",
    "emergency": "defibrillator",
    "emergency:phone": "144",
    "indoor": "yes",
    "opening_hours": "Mo-Fr 08:00-22:00",
    "operator": "Alex Steiger, SIBE",
    "phone": "+423 237 72 44",
    "id": "node/9004557450"
  },
  "geometry": {
    "type": "Point",
    "coordinates": [
      9.5157158,
      47.1665019
    ]
  }
},
{
  "type": "Feature",
  "id": "node/9004557451",
  "properties": {
    "access": "yes",
    "defibrillator:location": "Hallenbad Resch im Foyer",
    "description": "während Öffnungszeiten verfügbar",
    "emergency": "defibrillator",
    "emergency:phone": "144",
    "indoor": "yes",
    "opening_hours": "Mo-Su 07:00-22:00",
    "operator": "Alex Steiger, SIBE",
    "phone": "+423 237 72 44",
    "id": "node/9004557451"
  },
  "geometry": {
    "type": "Point",
    "coordinates": [
      9.5150962,
      47.1661955
    ]
  }
},
{
  "type": "Feature",
  "id": "node/9004557452",
  "properties": {
    "access": "yes",
    "defibrillator:location": "Ladenlokal im Gang",
    "description": "während Öffnungszeiten verfügbar",
    "emergency": "defibrillator",
    "emergency:phone": "144",
    "indoor": "yes",
    "opening_hours": "Mo-Fr 08:00-12:00, 13:30-17:00",
    "operator": "Gottlieb Sele, Installtionskontrolle",
    "id": "node/9004557452"
  },
  "geometry": {
    "type": "Point",
    "coordinates": [
      9.5087045,
      47.1653384
    ]
  }
},
{
  "type": "Feature",
  "id": "node/9004557456",
  "properties": {
    "access": "yes",
    "defibrillator:location": "Haus der Wirtschaft: Eingang EG",
    "description": "während Öffnungszeiten verfügbar",
    "emergency": "defibrillator",
    "emergency:phone": "144",
    "indoor": "yes",
    "opening_hours": "Mo-Fr 08:00-12:00, 13:30-17:00",
    "operator": "Empfang",
    "phone": "+423 236 71 00",
    "id": "node/9004557456"
  },
  "geometry": {
    "type": "Point",
    "coordinates": [
      9.5099196,
      47.1677036
    ]
  }
},
{
  "type": "Feature",
  "id": "node/9004557457",
  "properties": {
    "access": "yes",
    "defibrillator:location": "Verwaltungsgebäude Post",
    "description": "während Öffnungszeiten verfügbar",
    "emergency": "defibrillator",
    "emergency:phone": "144",
    "indoor": "yes",
    "opening_hours": "Mo-Fr 08:00-12:00, 13:30-17:00",
    "operator": "Erich Lotzer, Hausdienst",
    "phone": "+423 236 72 89",
    "id": "node/9004557457"
  },
  "geometry": {
    "type": "Point",
    "coordinates": [
      9.5083961,
      47.1676963
    ]
  }
},
{
  "type": "Feature",
  "id": "node/9004557458",
  "properties": {
    "defibrillator:location": "LAK Haus in Cafeteria",
    "emergency": "defibrillator",
    "emergency:phone": "144",
    "indoor": "yes",
    "opening_hours": "Mo-Su 09:00-18:00",
    "operator": "Sekretariat",
    "phone": "+423 236 47 47",
    "id": "node/9004557458"
  },
  "geometry": {
    "type": "Point",
    "coordinates": [
      9.5080823,
      47.1690001
    ]
  }
},
{
  "type": "Feature",
  "id": "node/9004557459",
  "properties": {
    "access": "unknown",
    "defibrillator:location": "Empfang",
    "description": "Zugang nur bei Öffnungszeiten",
    "emergency": "defibrillator",
    "emergency:phone": "144",
    "indoor": "yes",
    "opening_hours": "Mo-Fr 07:00-18:00",
    "operator": "Hansjörg Steiner, Kommandant",
    "phone": "+423 235 35 35",
    "id": "node/9004557459"
  },
  "geometry": {
    "type": "Point",
    "coordinates": [
      9.5096433,
      47.1716969
    ]
  }
},
{
  "type": "Feature",
  "id": "node/9004557460",
  "properties": {
    "access": "customers",
    "defibrillator:location": "Werkhof im Flur",
    "description": "Nur bei Öffnungszeiten erreichbar",
    "emergency": "defibrillator",
    "emergency:phone": "144",
    "indoor": "yes",
    "opening_hours": "Mo-Sa 08:00-18:00",
    "operator": "Alex Steiger, SIBE",
    "phone": "+423 237 72 44",
    "id": "node/9004557460"
  },
  "geometry": {
    "type": "Point",
    "coordinates": [
      9.5119125,
      47.1712083
    ]
  }
},
{
  "type": "Feature",
  "id": "node/9004557462",
  "properties": {
    "access": "yes",
    "defibrillator:location": "Anmeldung Links nach Eingang",
    "description": "während Öffnungszeiten verfügbar",
    "emergency": "defibrillator",
    "emergency:phone": "144",
    "indoor": "yes",
    "opening_hours": "Mo-Fr 08:00-12:00, 13:30-17:00",
    "operator": "Manuela Koch",
    "phone": "+423 236 01 11",
    "id": "node/9004557462"
  },
  "geometry": {
    "type": "Point",
    "coordinates": [
      9.5112392,
      47.1748312
    ]
  }
},
{
  "type": "Feature",
  "id": "node/9004557463",
  "properties": {
    "access": "yes",
    "defibrillator:location": "Erster Stock gegenüber Lift",
    "description": "während Öffnungszeiten verfügbar",
    "emergency": "defibrillator",
    "emergency:phone": "144",
    "indoor": "yes",
    "opening_hours": "Mo-Fr 08:00-16:00",
    "operator": "Fredy Kindle SIBE",
    "phone": "+423 239 61 70",
    "id": "node/9004557463"
  },
  "geometry": {
    "type": "Point",
    "coordinates": [
      9.5128432,
      47.1745942
    ]
  }
},
{
  "type": "Feature",
  "id": "node/9004557464",
  "properties": {
    "access": "yes",
    "defibrillator:location": "Im Werk 1",
    "description": "während Öffnungszeiten verfügbar",
    "emergency": "defibrillator",
    "emergency:phone": "144",
    "indoor": "yes",
    "operator": "Leiter Werkschutz",
    "phone": "+423 234 22 01",
    "id": "node/9004557464"
  },
  "geometry": {
    "type": "Point",
    "coordinates": [
      9.5244276,
      47.1793582
    ]
  }
},
{
  "type": "Feature",
  "id": "node/9004557466",
  "properties": {
    "access": "yes",
    "defibrillator:location": "Schekolin: Eingang Technikgebäude",
    "description": "während Öffnungszeiten verfügbar",
    "emergency": "defibrillator",
    "emergency:phone": "144",
    "indoor": "yes",
    "opening_hours": "Mo-Fr 06:00-20:00",
    "operator": "Jürgen Ritter, BFW Kdt",
    "phone": "+423 375 75 92",
    "id": "node/9004557466"
  },
  "geometry": {
    "type": "Point",
    "coordinates": [
      9.5037639,
      47.2064464
    ]
  }
},
{
  "type": "Feature",
  "id": "node/9004557469",
  "properties": {
    "access": "yes",
    "defibrillator:location": "LAK Haus am Empfang",
    "emergency": "defibrillator",
    "emergency:phone": "144",
    "indoor": "yes",
    "opening_hours": "Mo-Su 09:00-18:00",
    "operator": "Sekretariat",
    "phone": "+423 377 46 00",
    "id": "node/9004557469"
  },
  "geometry": {
    "type": "Point",
    "coordinates": [
      9.5244518,
      47.2114243
    ]
  }
},
{
  "type": "Feature",
  "id": "node/9004557470",
  "properties": {
    "access": "yes",
    "defibrillator:location": "Erste Hilfe Raum",
    "description": "während Öffnungszeiten verfügbar",
    "emergency": "defibrillator",
    "emergency:phone": "144",
    "indoor": "yes",
    "opening_hours": "Mo-Fr 08:00-12:00, 13:30-21:00",
    "operator": "Bademeister",
    "phone": "+423 373 48 66",
    "id": "node/9004557470"
  },
  "geometry": {
    "type": "Point",
    "coordinates": [
      9.5262194,
      47.2134996
    ]
  }
},
{
  "type": "Feature",
  "id": "node/9004557471",
  "properties": {
    "access": "yes",
    "defibrillator:location": "Gemeindesaal im Foyer",
    "description": "während Öffnungszeiten verfügbar",
    "emergency": "defibrillator",
    "emergency:phone": "144",
    "indoor": "yes",
    "opening_hours": "Mo-Fr 08:00-12:00, 13:30-17:00",
    "operator": "Jürgen Biedermann GePo",
    "phone": "+423 377 50 22",
    "id": "node/9004557471"
  },
  "geometry": {
    "type": "Point",
    "coordinates": [
      9.5239596,
      47.212687
    ]
  }
},
{
  "type": "Feature",
  "id": "node/9004557472",
  "properties": {
    "access": "no",
    "defibrillator:location": "Feuerwehr Einsatzfahrzeug",
    "description": "Nur im Einsatz verfügbar",
    "emergency": "defibrillator",
    "emergency:phone": "144",
    "indoor": "yes",
    "operator": "Gerhard Senti",
    "phone": "+423 373 35 02",
    "id": "node/9004557472"
  },
  "geometry": {
    "type": "Point",
    "coordinates": [
      9.5282095,
      47.2072226
    ]
  }
},
{
  "type": "Feature",
  "id": "node/9004557473",
  "properties": {
    "defibrillator:location": "Pförnerhaus Anmeldung Sicherheit",
    "emergency": "defibrillator",
    "emergency:phone": "144",
    "indoor": "yes",
    "opening_hours": "Mo-Fr 09:00-17:00",
    "operator": "Sicherheitsbeauftragte Frau Sandra Konzet",
    "phone": "+423 377 23 11",
    "id": "node/9004557473"
  },
  "geometry": {
    "type": "Point",
    "coordinates": [
      9.5293897,
      47.2080317
    ]
  }
},
{
  "type": "Feature",
  "id": "node/9004557474",
  "properties": {
    "access": "yes",
    "defibrillator:location": "Sportpark Eschen, Haupteingang EG",
    "description": "während Öffnungszeiten verfügbar",
    "emergency": "defibrillator",
    "emergency:phone": "144",
    "indoor": "yes",
    "opening_hours": "Mo-Fr 08:00-12:00, 13:30-17:00, 18:00-24:00",
    "operator": "Meier Josef / Patrik Gstöhl",
    "phone": "+423 7885039",
    "id": "node/9004557474"
  },
  "geometry": {
    "type": "Point",
    "coordinates": [
      9.5385146,
      47.2058779
    ]
  }
},
{
  "type": "Feature",
  "id": "node/9004557475",
  "properties": {
    "access": "yes",
    "defibrillator:location": "Mehrzweckgebäude Museum",
    "description": "während Öffnungszeiten verfügbar",
    "emergency": "defibrillator",
    "emergency:phone": "144",
    "indoor": "yes",
    "operator": "Manuel Marxer, Hausdienst",
    "phone": "+423 792 22 41",
    "id": "node/9004557475"
  },
  "geometry": {
    "type": "Point",
    "coordinates": [
      9.547205,
      47.2099266
    ]
  }
},
{
  "type": "Feature",
  "id": "node/9004557476",
  "properties": {
    "access": "yes",
    "defibrillator:location": "Vereinseingang im Zuschg",
    "description": "während Öffnungszeiten verfügbar",
    "emergency": "defibrillator",
    "emergency:phone": "144",
    "indoor": "yes",
    "opening_hours": "Mo-Fr 08:00-12:00, 13:30-17:00",
    "operator": "Daniel Frick, Hausdienst",
    "phone": "+423 792 22 47",
    "id": "node/9004557476"
  },
  "geometry": {
    "type": "Point",
    "coordinates": [
      9.5617908,
      47.211254
    ]
  }
},
{
  "type": "Feature",
  "id": "node/9004557477",
  "properties": {
    "access": "yes",
    "defibrillator:location": "Turnhalle in der Lehrerumkleide",
    "description": "während Öffnungszeiten verfügbar",
    "emergency": "defibrillator",
    "emergency:phone": "144",
    "indoor": "yes",
    "opening_hours": "Mo-Fr 08:00-12:00, 13:30-17:00",
    "operator": "Manuel Marxer, Huasdienst",
    "phone": "+423 792 22 41",
    "id": "node/9004557477"
  },
  "geometry": {
    "type": "Point",
    "coordinates": [
      9.5638239,
      47.2108577
    ]
  }
},
{
  "type": "Feature",
  "id": "node/9004557478",
  "properties": {
    "access": "yes",
    "defibrillator:location": "Obere Werkhalle - Sicherheitsposten",
    "description": "während Öffnungszeiten verfügbar",
    "emergency": "defibrillator",
    "emergency:phone": "144",
    "indoor": "yes",
    "opening_hours": "Mo-Fr 08:00-17:00",
    "operator": "Thomas Lampert",
    "phone": "+4223 377 21 30",
    "id": "node/9004557478"
  },
  "geometry": {
    "type": "Point",
    "coordinates": [
      9.5683622,
      47.2169156
    ]
  }
},
{
  "type": "Feature",
  "id": "node/9004557479",
  "properties": {
    "access": "yes",
    "defibrillator:location": "Gemeindesaal in der Küche",
    "description": "während Öffnungszeiten verfügbar",
    "emergency": "defibrillator",
    "emergency:phone": "144",
    "indoor": "yes",
    "opening_hours": "Mo-Fr 08:00-12:00, 13:30-17:00",
    "operator": "Tobias Keller, Hausdienst",
    "phone": "+423 792 23 48",
    "id": "node/9004557479"
  },
  "geometry": {
    "type": "Point",
    "coordinates": [
      9.5433909,
      47.2207468
    ]
  }
},
{
  "type": "Feature",
  "id": "node/9004557480",
  "properties": {
    "access": "yes",
    "defibrillator:location": "Kulturhaus Rössle",
    "description": "während Öffnungszeiten verfügbar",
    "emergency": "defibrillator",
    "emergency:phone": "144",
    "indoor": "yes",
    "operator": "Tobias Keller, Hausdienst",
    "phone": "+423 792 23 48",
    "id": "node/9004557480"
  },
  "geometry": {
    "type": "Point",
    "coordinates": [
      9.5445389,
      47.2207996
    ]
  }
},
{
  "type": "Feature",
  "id": "node/9004557481",
  "properties": {
    "access": "yes",
    "defibrillator:location": "Sanitätsraum der Turnhalle",
    "description": "während Öffnungszeiten verfügbar",
    "emergency": "defibrillator",
    "emergency:phone": "144",
    "indoor": "yes",
    "opening_hours": "Mo-Fr 08:00-12:00, 13:30-16:30",
    "operator": "Tobias Keller, Hausdienst",
    "phone": "+423 792 23 48",
    "id": "node/9004557481"
  },
  "geometry": {
    "type": "Point",
    "coordinates": [
      9.5441633,
      47.2212186
    ]
  }
},
{
  "type": "Feature",
  "id": "node/9004557484",
  "properties": {
    "access": "yes",
    "defibrillator:location": "Gemeindesaal im Foyer",
    "description": "während Öffnungszeiten verfügbar",
    "emergency": "defibrillator",
    "emergency:phone": "144",
    "indoor": "yes",
    "opening_hours": "Mo-Fr 08:00-12:00, 13:30-17:00",
    "operator": "Patrick Keller - Christian Frommelt",
    "phone": "+423 791 76 10",
    "id": "node/9004557484"
  },
  "geometry": {
    "type": "Point",
    "coordinates": [
      9.5252296,
      47.2394468
    ]
  }
},
{
  "type": "Feature",
  "id": "node/9180373117",
  "properties": {
    "access": "yes",
    "defibrillator:location": "Rheinwiese Schaan",
    "description": "Garderobe/Eingang Sanitätsraum",
    "emergency": "defibrillator",
    "emergency:phone": "144",
    "indoor": "yes",
    "opening_hours": "08:00-22:00",
    "operator": "Gemeinde Schaan",
    "id": "node/9180373117"
  },
  "geometry": {
    "type": "Point",
    "coordinates": [
      9.4933369,
      47.1665037
    ]
  }
},
{
  "type": "Feature",
  "id": "node/9219009135",
  "properties": {
    "access": "no",
    "description": "während Öffnungszeiten verfügbar",
    "emergency": "defibrillator",
    "emergency:phone": "144",
    "indoor": "yes",
    "opening_hours": "Mo-Fr 08:30-12:00, 13:30-18:00",
    "operator": "Telecom Liechtenstein AG",
    "phone": "+423 237 74 00",
    "id": "node/9219009135"
  },
  "geometry": {
    "type": "Point",
    "coordinates": [
      9.508614,
      47.1669582
    ]
  }
},
{
  "type": "Feature",
  "id": "node/9219009136",
  "properties": {
    "access": "no",
    "defibrillator:location": "Treppenhaus, 2. Zwischengeschoss",
    "description": "während Öffnungszeiten verfügbar",
    "emergency": "defibrillator",
    "emergency:phone": "144",
    "indoor": "yes",
    "opening_hours": "Mo-Fr 07:30-12:00, 13:00-17:00",
    "operator": "Telecom Liechtenstein AG",
    "phone": "+423 237 74 00",
    "id": "node/9219009136"
  },
  "geometry": {
    "type": "Point",
    "coordinates": [
      9.5105486,
      47.1468193
    ]
  }
},
{
  "type": "Feature",
  "id": "node/9472004262",
  "properties": {
    "access": "no",
    "defibrillator:location": "4.OG Empfang rechts hinter Glaswand",
    "description": "während Öffnungszeiten verfügbar",
    "emergency": "defibrillator",
    "indoor": "yes",
    "opening_hours": "Mo-Fr 07:00-18:00",
    "operator": "Robert Edlinger",
    "phone": "+43 664 281 4920",
    "id": "node/9472004262"
  },
  "geometry": {
    "type": "Point",
    "coordinates": [
      9.5355642,
      47.2072331
    ]
  }
},
{
  "type": "Feature",
  "id": "node/10074622164",
  "properties": {
    "access": "no",
    "defibrillator:location": "Hauptgebäude VP Bank. Bei Personaleingang",
    "description": "während Öffnungszeiten verfügbar",
    "emergency": "defibrillator",
    "emergency:phone": "144",
    "indoor": "yes",
    "opening_hours": "Mo-Fr 06:00-21:00",
    "operator": "VP Bank",
    "phone": "+42 32356310",
    "id": "node/10074622164"
  },
  "geometry": {
    "type": "Point",
    "coordinates": [
      9.5207718,
      47.1404679
    ]
  }
},
{
  "type": "Feature",
  "id": "node/10074622165",
  "properties": {
    "access": "no",
    "defibrillator:location": "Haus Giessen VP Bank, Bei Personaleingang",
    "description": "während Öffnungszeiten verfügbar",
    "emergency": "defibrillator",
    "emergency:phone": "144",
    "indoor": "yes",
    "opening_hours": "Mo-Fr 06:00-21:00",
    "operator": "VP Bank",
    "phone": "+42 32356310",
    "id": "node/10074622165"
  },
  "geometry": {
    "type": "Point",
    "coordinates": [
      9.5202675,
      47.1403781
    ]
  }
},
{
  "type": "Feature",
  "id": "node/10074622166",
  "properties": {
    "access": "no",
    "defibrillator:location": "Haus Zentrum Triesen, VP Bank bei Personaleingang",
    "description": "während Öffnungszeiten verfügbar",
    "emergency": "defibrillator",
    "emergency:phone": "144",
    "indoor": "yes",
    "opening_hours": "Mo-Fr 06:00-21:00",
    "operator": "VP Bank",
    "phone": "+42 32356310",
    "id": "node/10074622166"
  },
  "geometry": {
    "type": "Point",
    "coordinates": [
      9.5244146,
      47.1217239
    ]
  }
},
{
  "type": "Feature",
  "id": "node/10127651217",
  "properties": {
    "access": "no",
    "defibrillator:location": "INFICON AG, 2.OG Atrium bei Kantine",
    "description": "verfügbar während Arbeitszeiten von 08:00 bis 16:00 Uhr",
    "emergency": "defibrillator",
    "emergency:phone": "144",
    "indoor": "yes",
    "opening_hours": "Mo-Fr 08:00-16:00",
    "operator": "INFICON AG",
    "id": "node/10127651217"
  },
  "geometry": {
    "type": "Point",
    "coordinates": [
      9.5137722,
      47.0757078
    ]
  }
},
{
  "type": "Feature",
  "id": "node/10127670618",
  "properties": {
    "access": "no",
    "defibrillator:location": "INFICON AG, 2.OG im Atrium bei Kantine",
    "description": "während Öffnungszeiten verfügbar 08:00 - 12:00 / 13:30 - 17:00",
    "emergency": "defibrillator",
    "emergency:phone": "144",
    "indoor": "yes",
    "opening_hours": "Mo-Fr 08:00-17:00",
    "operator": "INFICON AG",
    "id": "node/10127670618"
  },
  "geometry": {
    "type": "Point",
    "coordinates": [
      9.5138074,
      47.0757407
    ]
  }
},
{
  "type": "Feature",
  "id": "node/10282470612",
  "properties": {
    "access": "no",
    "defibrillator:location": "Haupteingang",
    "description": "während Öffnungszeiten Schulhaus verfügbar",
    "emergency": "defibrillator",
    "emergency:phone": "144",
    "indoor": "yes",
    "id": "node/10282470612"
  },
  "geometry": {
    "type": "Point",
    "coordinates": [
      9.5151529,
      47.1678344
    ]
  }
},
{
  "type": "Feature",
  "id": "node/10763310410",
  "properties": {
    "access": "yes",
    "defibrillator:location": "Bei Empfang 1. OG",
    "description": "oranger Koffer",
    "emergency": "defibrillator",
    "indoor": "yes",
    "latitude": "47.14919",
    "longitude": "9.5163",
    "name": "Universität Liechtenstein",
    "opening_hours": "Mo-Th 08:30-12:00,13:30-17:00, Fr 08:30-12:00,13:30-15:00",
    "operator": "Lifetec AG Schweiz",
    "phone": "+41 800 122 144",
    "id": "node/10763310410"
  },
  "geometry": {
    "type": "Point",
    "coordinates": [
      9.5163,
      47.14919
    ]
  }
},
{
  "type": "Feature",
  "id": "node/10763310411",
  "properties": {
    "access": "yes",
    "defibrillator:location": "EG, Durchgang zur Mensa, hinter Empfang",
    "description": "Blauer Rucksack",
    "emergency": "defibrillator",
    "indoor": "yes",
    "latitude": "47.17161",
    "longitude": "9.51007",
    "name": "Ivoclar Vivadent AG",
    "opening_hours": "Mo-Th 08:00-17:00; Fr 08:00-16:00",
    "operator": "Lifetec AG Schweiz",
    "phone": "+41 800 122 144",
    "id": "node/10763310411"
  },
  "geometry": {
    "type": "Point",
    "coordinates": [
      9.51007,
      47.17161
    ]
  }
},
{
  "type": "Feature",
  "id": "node/10763310412",
  "properties": {
    "access": "no",
    "defibrillator:location": "2.OG, Empfang",
    "description": "oranger Koffer",
    "emergency": "defibrillator",
    "indoor": "yes",
    "latitude": "47.12098",
    "longitude": "9.52209",
    "name": "Bemer International AG",
    "opening_hours": "Mo-Th 08:00-12:00, 13:00-17:00; Fr 08:00-12:00, 13:00-15:00",
    "operator": "Lifetec AG Schweiz",
    "phone": "+41 800 122 144",
    "id": "node/10763310412"
  },
  "geometry": {
    "type": "Point",
    "coordinates": [
      9.52209,
      47.12098
    ]
  }
},
{
  "type": "Feature",
  "id": "node/10763310413",
  "properties": {
    "access": "yes",
    "defibrillator:location": "EG, Kundenwartebereich",
    "description": "oranger Koffer",
    "emergency": "defibrillator",
    "indoor": "yes",
    "latitude": "47.17417",
    "longitude": "9.50966",
    "name": "Garage Weilenmann AG",
    "opening_hours": "Mo-Fr 07:30-18:00; Sa 08:00-16:00",
    "operator": "Lifetec AG Schweiz",
    "phone": "+41 800 122 144",
    "id": "node/10763310413"
  },
  "geometry": {
    "type": "Point",
    "coordinates": [
      9.50966,
      47.17417
    ]
  }
},
{
  "type": "Feature",
  "id": "node/10763310414",
  "properties": {
    "access": "no",
    "defibrillator:location": "1.OG, Küche Cafeteria",
    "description": "oranger Koffer",
    "emergency": "defibrillator",
    "indoor": "yes",
    "latitude": "47.16562",
    "longitude": "9.50878",
    "name": "IFM Independent Fund Management AG (F&M AG)",
    "opening_hours": "Mo-Fr 08:00-12:00, 13:00-17:30",
    "operator": "Lifetec AG Schweiz",
    "phone": "+41 800 122 144",
    "id": "node/10763310414"
  },
  "geometry": {
    "type": "Point",
    "coordinates": [
      9.50878,
      47.16562
    ]
  }
},
{
  "type": "Feature",
  "id": "node/10763310415",
  "properties": {
    "access": "no",
    "defibrillator:location": "Empfang im EG",
    "description": "oranger Koffer",
    "emergency": "defibrillator",
    "indoor": "yes",
    "latitude": "47.13295",
    "longitude": "9.51746",
    "name": "SOLFIN Financial Service Solutions AG",
    "opening_hours": "Mo-Fr 08:30-12:00, 13:30-17:00",
    "operator": "Lifetec AG Schweiz",
    "phone": "+41 800 122 144",
    "id": "node/10763310415"
  },
  "geometry": {
    "type": "Point",
    "coordinates": [
      9.51746,
      47.13295
    ]
  }
},
{
  "type": "Feature",
  "id": "node/10763310416",
  "properties": {
    "access": "yes",
    "defibrillator:location": "An Reception",
    "description": "oranger Koffer",
    "emergency": "defibrillator",
    "indoor": "yes",
    "latitude": "47.12619",
    "longitude": "9.52385",
    "name": "Bank Alpinum AG",
    "opening_hours": "Mo-Fr 08:00-17:00",
    "operator": "Lifetec AG Schweiz",
    "phone": "+41 800 122 144",
    "id": "node/10763310416"
  },
  "geometry": {
    "type": "Point",
    "coordinates": [
      9.52385,
      47.12619
    ]
  }
},
{
  "type": "Feature",
  "id": "node/10763310417",
  "properties": {
    "access": "yes",
    "defibrillator:location": "Mitarbeiter Treppenhaus, hinter Tür EG.",
    "description": "oranger Koffer",
    "emergency": "defibrillator",
    "indoor": "yes",
    "latitude": "47.10129",
    "longitude": "9.60902",
    "name": "Hotel Gorfion Anstalt",
    "operator": "Lifetec AG Schweiz",
    "phone": "+41 800 122 144",
    "id": "node/10763310417"
  },
  "geometry": {
    "type": "Point",
    "coordinates": [
      9.60902,
      47.10129
    ]
  }
},
{
  "type": "Feature",
  "id": "node/10765221505",
  "properties": {
    "access": "no",
    "defibrillator:location": "Migros Sonnenplatz",
    "description": "während Öffnungszeiten verfügbar",
    "emergency": "defibrillator",
    "emergency:phone": "144",
    "indoor": "yes",
    "opening_hours": "Mo-Fr 07:00-19:00; Sa 07:00-17:00; Su 08:00-17:00",
    "source": "local_knowledge, defikarte.ch",
    "id": "node/10765221505"
  },
  "geometry": {
    "type": "Point",
    "coordinates": [
      9.5254768,
      47.108965
    ]
  }
},
{
  "type": "Feature",
  "id": "node/10795986605",
  "properties": {
    "access": "yes",
    "defibrillator:location": "Erreichbar via Braustube oder Eingang bei Briefkästen. An der Wand gegenüber des Lifts montiert.",
    "description": "von Mo-Fr 08.00-12.00 Uhr / 13.00-17.00 Uhr und den Öffnungszeiten der Braustube verfügbar",
    "emergency": "defibrillator",
    "emergency:phone": "144",
    "indoor": "yes",
    "level": "0",
    "operator": "HFH AG",
    "id": "node/10795986605"
  },
  "geometry": {
    "type": "Point",
    "coordinates": [
      9.5165635,
      47.1773411
    ]
  }
},
{
  "type": "Feature",
  "id": "node/10819384705",
  "properties": {
    "access": "no",
    "defibrillator:location": "RMS Shooting und Kafi",
    "description": "während Öffnungszeiten verfügbar",
    "emergency": "defibrillator",
    "emergency:phone": "144",
    "indoor": "yes",
    "level": "4",
    "operator": "RMS Shooting",
    "id": "node/10819384705"
  },
  "geometry": {
    "type": "Point",
    "coordinates": [
      9.5146022,
      47.1774116
    ]
  }
},
{
  "type": "Feature",
  "id": "node/11217394739",
  "properties": {
    "access": "no",
    "defibrillator:location": "Zollamt Schaanwald",
    "description": "während den Öffnungszeiten verfügbar",
    "emergency": "defibrillator",
    "emergency:phone": "144",
    "indoor": "yes",
    "level": "0",
    "opening_hours": "Mo-Fr 07:30-18:00; Sa 10:00-18:00",
    "operator": "BAZG",
    "id": "node/11217394739"
  },
  "geometry": {
    "type": "Point",
    "coordinates": [
      9.5697308,
      47.2180305
    ]
  }
},
{
  "type": "Feature",
  "id": "node/11276896069",
  "properties": {
    "access": "no",
    "defibrillator:location": "Office Building, Landstrasse 105, 9495 Triesen",
    "description": "Office opening hours",
    "emergency": "defibrillator",
    "emergency:phone": "144",
    "indoor": "yes",
    "level": "0",
    "opening_hours": "Mo-Fr 09:00-12:00,13:30-17:00",
    "operator": "Euro Atlantic Foundation",
    "phone": "+4233997550",
    "source": "local_knowledge, defikarte.ch",
    "id": "node/11276896069"
  },
  "geometry": {
    "type": "Point",
    "coordinates": [
      9.5239305,
      47.1155115
    ]
  }
},
{
  "type": "Feature",
  "id": "node/11371369571",
  "properties": {
    "access": "no",
    "defibrillator:location": "Ampera House",
    "description": "Haupteingang nur zu Öffnungszeiten erreichbar",
    "emergency": "defibrillator",
    "emergency:phone": "144",
    "indoor": "yes",
    "level": "EG",
    "operator": "Privat",
    "id": "node/11371369571"
  },
  "geometry": {
    "type": "Point",
    "coordinates": [
      9.518718,
      47.1784395
    ]
  }
},
{
  "type": "Feature",
  "id": "node/11395695569",
  "properties": {
    "access": "no",
    "defibrillator:location": "Im Empfangsbereich",
    "description": "während Öffnungszeiten verfügbar",
    "emergency": "defibrillator",
    "emergency:phone": "144",
    "indoor": "yes",
    "opening_hours": "Mo-Fr 07:30 - 12:30, 13:30 - 18:30",
    "operator": "Dr. Risch Anstalt",
    "phone": "+41 58 523 30 00",
    "source": "local_knowledge, defikarte.ch",
    "id": "node/11395695569"
  },
  "geometry": {
    "type": "Point",
    "coordinates": [
      9.5136237,
      47.1343666
    ]
  }
},
{
  "type": "Feature",
  "id": "node/11409822869",
  "properties": {
    "access": "no",
    "defibrillator:location": "Fahrzeughalle im Werkhof ",
    "description": "In der Fahrzeughalle des Werkhof",
    "emergency": "defibrillator",
    "emergency:phone": "144",
    "indoor": "yes",
    "opening_hours": "Mo - Fr 7:00 - 17:00",
    "operator": "Gemeinde Eschen ",
    "phone": "+4233774999",
    "source": "local_knowledge, defikarte.ch",
    "id": "node/11409822869"
  },
  "geometry": {
    "type": "Point",
    "coordinates": [
      9.5274156,
      47.2073939
    ]
  }
},
{
  "type": "Feature",
  "id": "node/11413463669",
  "properties": {
    "access": "no",
    "defibrillator:location": "Schloss Vaduz",
    "description": "In der Küche beim Personal",
    "emergency": "defibrillator",
    "emergency:phone": "144",
    "indoor": "yes",
    "operator": "Hauswart Schloss",
    "id": "node/11413463669"
  },
  "geometry": {
    "type": "Point",
    "coordinates": [
      9.5243141,
      47.1397125
    ]
  }
},
{
  "type": "Feature",
  "id": "node/11417495069",
  "properties": {
    "access": "no",
    "defibrillator:location": "Wasserwerk Vaduz ",
    "description": "Bei der Eingangstüre ersichtlich ",
    "emergency": "defibrillator",
    "emergency:phone": "144",
    "indoor": "yes",
    "opening_hours": "Mo - Fr 7:00 - 17:00",
    "operator": "Gemeinde Vaduz ",
    "phone": "+423 793 78 16",
    "source": "local_knowledge, defikarte.ch",
    "id": "node/11417495069"
  },
  "geometry": {
    "type": "Point",
    "coordinates": [
      9.505856,
      47.1508808
    ]
  }
},
{
  "type": "Feature",
  "id": "node/11434882869",
  "properties": {
    "access": "no",
    "defibrillator:location": "Kirche St. Florin ",
    "description": "Innen neben Türe in Kasten verbaut",
    "emergency": "defibrillator",
    "emergency:phone": "144",
    "indoor": "yes",
    "operator": "Gemeinde Ruggell",
    "id": "node/11434882869"
  },
  "geometry": {
    "type": "Point",
    "coordinates": [
      9.5285397,
      47.2410754
    ]
  }
},
{
  "type": "Feature",
  "id": "node/11457632569",
  "properties": {
    "access": "no",
    "defibrillator:location": "Roxy Markt",
    "description": "Im Gang zum Migrosmarkt",
    "emergency": "defibrillator",
    "emergency:phone": "144",
    "indoor": "yes",
    "opening_hours": "Mo-Fr 08:00-19:00",
    "operator": "Stefan Ospelt",
    "id": "node/11457632569"
  },
  "geometry": {
    "type": "Point",
    "coordinates": [
      9.5121218,
      47.0753508
    ]
  }
},
{
  "type": "Feature",
  "id": "node/11457634669",
  "properties": {
    "access": "no",
    "defibrillator:location": "Umicore AG Betriebssanität ",
    "description": "Bei der Betriebssanität",
    "emergency": "defibrillator",
    "emergency:phone": "144",
    "indoor": "yes",
    "opening_hours": "Mo-Fr 08:00-18:00",
    "operator": "Umicore AG",
    "id": "node/11457634669"
  },
  "geometry": {
    "type": "Point",
    "coordinates": [
      9.5132609,
      47.076262
    ]
  }
},
{
  "type": "Feature",
  "id": "node/11614879869",
  "properties": {
    "access": "no",
    "defibrillator:location": "Clunia Saal",
    "description": "8.00-17.00 Uhr ",
    "emergency": "defibrillator",
    "emergency:phone": "144",
    "indoor": "yes",
    "operator": "Gemeinde Eschen-Nendeln",
    "id": "node/11614879869"
  },
  "geometry": {
    "type": "Point",
    "coordinates": [
      9.5442248,
      47.1993331
    ]
  }
},
{
  "type": "Feature",
  "id": "node/11676134010",
  "properties": {
    "access": "nur_für_berechtige",
    "defibrillator:location": "1.OG Cafeteria",
    "description": "Oranger Koffer",
    "emergency": "defibrillator",
    "emergency:phone": "144",
    "indoor": "yes",
    "level": "1",
    "name": "Universität Liechtenstein",
    "opening_hours": "Mo-Fr 07:30-17:00",
    "operator": "Lifetec AG Schweitz",
    "phone": "+41 800 122 144",
    "id": "node/11676134010"
  },
  "geometry": {
    "type": "Point",
    "coordinates": [
      9.511347,
      47.1518677
    ]
  }
}
]
}
