{
"type": "FeatureCollection",
"features": [
{
  "type": "Feature",
  "id": "node/8376540565",
  "properties": {
    "access": "yes",
    "defibrillator:location": "Der Defibrillator befindet sich in einem Wandschrank an der Nordseite des Gebäudes (beim Aussenzugang Lift) an der Rathausgasse",
    "description": "24h verfügbar",
    "emergency": "defibrillator",
    "indoor": "no",
    "opening_hours": "24/7",
    "operator": "Gemeinde Vaduz, Daniel Wenaweser",
    "phone": "+423 7937802",
    "id": "node/8376540565"
  },
  "geometry": {
    "type": "Point",
    "coordinates": [
      9.5218815,
      47.1406857
    ]
  }
},
{
  "type": "Feature",
  "id": "node/8842619417",
  "properties": {
    "access": "yes",
    "defibrillator:location": "Clubhaus Tennisplatz Rüfe",
    "description": "UG vor Garderoben: April-Oktober",
    "emergency": "defibrillator",
    "emergency:phone": "144",
    "indoor": "no",
    "opening_hours": "24/7",
    "operator": "Tennisclub Vaduz",
    "id": "node/8842619417"
  },
  "geometry": {
    "type": "Point",
    "coordinates": [
      9.5221324,
      47.1511592
    ]
  }
},
{
  "type": "Feature",
  "id": "node/8842630422",
  "properties": {
    "access": "yes",
    "defibrillator:location": "Rathaus Vaduz, Rathausgasse",
    "description": "zwischen Rathaus und Drogerie",
    "emergency": "defibrillator",
    "emergency:phone": "144",
    "indoor": "no",
    "opening_hours": "24/7",
    "operator": "Gemeinde Vaduz",
    "phone": "+423 237 78 78",
    "id": "node/8842630422"
  },
  "geometry": {
    "type": "Point",
    "coordinates": [
      9.5219966,
      47.1408281
    ]
  }
},
{
  "type": "Feature",
  "id": "node/9004556000",
  "properties": {
    "access": "yes",
    "defibrillator:location": "Flur Erdgeschoss",
    "description": "24h verfügbar",
    "emergency": "defibrillator",
    "emergency:phone": "144",
    "indoor": "yes",
    "opening_hours": "24/7",
    "operator": "Thomas Eberle",
    "phone": "+423 263 22 86",
    "id": "node/9004556000"
  },
  "geometry": {
    "type": "Point",
    "coordinates": [
      9.5960319,
      47.1099416
    ]
  }
},
{
  "type": "Feature",
  "id": "node/9004556001",
  "properties": {
    "access": "yes",
    "defibrillator:location": "Turnhallen und Schuleingang",
    "description": "24h verfügbar Eingangsbereich aussen",
    "emergency": "defibrillator",
    "emergency:phone": "144",
    "indoor": "no",
    "opening_hours": "24/7",
    "operator": "Beat Schädler",
    "phone": "+423 792 26 75",
    "id": "node/9004556001"
  },
  "geometry": {
    "type": "Point",
    "coordinates": [
      9.5474035,
      47.1169584
    ]
  }
},
{
  "type": "Feature",
  "id": "node/9004556004",
  "properties": {
    "access": "yes",
    "defibrillator:location": "Eingang Warteraum",
    "description": "Öffentlich zugänglich und im Wandkasten verbaut unterhalb Infobildschirm und neben WC Eingang",
    "emergency": "defibrillator",
    "emergency:phone": "144",
    "indoor": "no",
    "opening_hours": "24/7",
    "operator": "Wolfgang Schädler, Hausdienst",
    "phone": "+423 792 26 69",
    "id": "node/9004556004"
  },
  "geometry": {
    "type": "Point",
    "coordinates": [
      9.5432273,
      47.1179677
    ]
  }
},
{
  "type": "Feature",
  "id": "node/9004556005",
  "properties": {
    "access": "yes",
    "defibrillator:location": "Sanitätsraum",
    "description": "24h verfügbar",
    "emergency": "defibrillator",
    "emergency:phone": "144",
    "indoor": "yes",
    "opening_hours": "24/7",
    "operator": "Ottokar Schädler",
    "phone": "+423 792 26 70",
    "id": "node/9004556005"
  },
  "geometry": {
    "type": "Point",
    "coordinates": [
      9.5395929,
      47.1146421
    ]
  }
},
{
  "type": "Feature",
  "id": "node/9004556014",
  "properties": {
    "access": "yes",
    "defibrillator:location": "LAK Haus, Sekretariat",
    "description": "24h verfügbar",
    "emergency": "defibrillator",
    "emergency:phone": "144",
    "indoor": "yes",
    "opening_hours": "24/7",
    "operator": "Sekretariat",
    "phone": "+423 399 15 00",
    "id": "node/9004556014"
  },
  "geometry": {
    "type": "Point",
    "coordinates": [
      9.5253959,
      47.1044959
    ]
  }
},
{
  "type": "Feature",
  "id": "node/9004557421",
  "properties": {
    "access": "yes",
    "defibrillator:location": "Freizeitanlage Kiosk Unterstand",
    "emergency": "defibrillator",
    "emergency:phone": "144",
    "indoor": "no",
    "opening_hours": "24/7",
    "operator": "Faustino Navarro GePo",
    "phone": "+423 236 36 42",
    "ref": "Sportplatz Triesen",
    "id": "node/9004557421"
  },
  "geometry": {
    "type": "Point",
    "coordinates": [
      9.5202327,
      47.110701
    ]
  }
},
{
  "type": "Feature",
  "id": "node/9004557425",
  "properties": {
    "access": "yes",
    "defibrillator:location": "Haupteingang Anmeldung",
    "description": "24h verfügbar",
    "emergency": "defibrillator",
    "emergency:phone": "144",
    "indoor": "yes",
    "opening_hours": "24/7",
    "operator": "Samuel Kind",
    "phone": "+423 236 79 87",
    "id": "node/9004557425"
  },
  "geometry": {
    "type": "Point",
    "coordinates": [
      9.5221424,
      47.1260601
    ]
  }
},
{
  "type": "Feature",
  "id": "node/9004557429",
  "properties": {
    "access": "yes",
    "defibrillator:location": "LAK Haus, Garderobe",
    "description": "24h verfügbar",
    "emergency": "defibrillator",
    "emergency:phone": "144",
    "indoor": "yes",
    "opening_hours": "24/7",
    "operator": "Sekretariat",
    "phone": "+423 239 12 12",
    "id": "node/9004557429"
  },
  "geometry": {
    "type": "Point",
    "coordinates": [
      9.5230329,
      47.1355362
    ]
  }
},
{
  "type": "Feature",
  "id": "node/9004557449",
  "properties": {
    "access": "yes",
    "defibrillator:location": "Öffentliches WC",
    "description": "24h verfügbar",
    "emergency": "defibrillator",
    "emergency:phone": "144",
    "indoor": "yes",
    "opening_hours": "24/7",
    "operator": "Alex Steiger, SIBE",
    "phone": "+423 237 72 44",
    "id": "node/9004557449"
  },
  "geometry": {
    "type": "Point",
    "coordinates": [
      9.5274881,
      47.1674173
    ]
  }
},
{
  "type": "Feature",
  "id": "node/9004557455",
  "properties": {
    "access": "yes",
    "defibrillator:location": "öffentlicher Durchgang beim WC",
    "description": "24h verfügbar",
    "emergency": "defibrillator",
    "emergency:phone": "144",
    "indoor": "yes",
    "opening_hours": "24/7",
    "operator": "Alex Steiger, SIBE",
    "phone": "+423 237 72 44",
    "id": "node/9004557455"
  },
  "geometry": {
    "type": "Point",
    "coordinates": [
      9.5098203,
      47.1665019
    ]
  }
},
{
  "type": "Feature",
  "id": "node/9004557458",
  "properties": {
    "access": "yes",
    "defibrillator:location": "LAK Haus in Cafeteria",
    "description": "24h verfügbar",
    "emergency": "defibrillator",
    "emergency:phone": "144",
    "indoor": "yes",
    "opening_hours": "24/7",
    "operator": "Sekretariat",
    "phone": "+423 236 47 47",
    "id": "node/9004557458"
  },
  "geometry": {
    "type": "Point",
    "coordinates": [
      9.5080823,
      47.1690001
    ]
  }
},
{
  "type": "Feature",
  "id": "node/9004557459",
  "properties": {
    "access": "yes",
    "defibrillator:location": "Empfang",
    "description": "24h verfügbar",
    "emergency": "defibrillator",
    "emergency:phone": "144",
    "indoor": "yes",
    "opening_hours": "24/7",
    "operator": "Hansjörg Steiner, Kommandant",
    "phone": "+423 235 35 35",
    "id": "node/9004557459"
  },
  "geometry": {
    "type": "Point",
    "coordinates": [
      9.5096433,
      47.1716969
    ]
  }
},
{
  "type": "Feature",
  "id": "node/9004557460",
  "properties": {
    "access": "yes",
    "defibrillator:location": "Werkhof im Flur",
    "description": "24h verfügbar",
    "emergency": "defibrillator",
    "emergency:phone": "144",
    "indoor": "yes",
    "opening_hours": "24/7",
    "operator": "Alex Steiger, SIBE",
    "phone": "+423 237 72 44",
    "id": "node/9004557460"
  },
  "geometry": {
    "type": "Point",
    "coordinates": [
      9.5119125,
      47.1712083
    ]
  }
},
{
  "type": "Feature",
  "id": "node/9004557461",
  "properties": {
    "access": "yes",
    "defibrillator:location": "Feuerwehr Schaan",
    "description": "nur über Notruf 24h erreichbar",
    "emergency": "defibrillator",
    "emergency:phone": "144",
    "indoor": "yes",
    "opening_hours": "24/7",
    "operator": "Alex Steiger, SIBE",
    "phone": "+423 237 72 44",
    "id": "node/9004557461"
  },
  "geometry": {
    "type": "Point",
    "coordinates": [
      9.5124274,
      47.1712994
    ]
  }
},
{
  "type": "Feature",
  "id": "node/9004557465",
  "properties": {
    "access": "yes",
    "defibrillator:location": "Ospelt: Portier/Securitasloge",
    "description": "24h verfügbar",
    "emergency": "defibrillator",
    "emergency:phone": "144",
    "indoor": "yes",
    "opening_hours": "24/7",
    "operator": "Securitas",
    "phone": "+41 58 377 11 10",
    "id": "node/9004557465"
  },
  "geometry": {
    "type": "Point",
    "coordinates": [
      9.5013177,
      47.2002032
    ]
  }
},
{
  "type": "Feature",
  "id": "node/9004557469",
  "properties": {
    "access": "yes",
    "defibrillator:location": "LAK Haus am Empfang",
    "description": "24h verfügbar",
    "emergency": "defibrillator",
    "emergency:phone": "144",
    "indoor": "yes",
    "opening_hours": "24/7",
    "operator": "Sekretariat",
    "phone": "+423 377 46 00",
    "id": "node/9004557469"
  },
  "geometry": {
    "type": "Point",
    "coordinates": [
      9.5244518,
      47.2114243
    ]
  }
},
{
  "type": "Feature",
  "id": "node/9004557473",
  "properties": {
    "access": "yes",
    "defibrillator:location": "Pförnerhaus Anmeldung Sicherheit",
    "description": "24h verfügbar",
    "emergency": "defibrillator",
    "emergency:phone": "144",
    "indoor": "yes",
    "opening_hours": "24/7",
    "operator": "Sicherheitsbeauftragte Frau Sandra Konzet",
    "phone": "+423 377 23 11",
    "id": "node/9004557473"
  },
  "geometry": {
    "type": "Point",
    "coordinates": [
      9.5293897,
      47.2080317
    ]
  }
},
{
  "type": "Feature",
  "id": "node/9004557482",
  "properties": {
    "access": "yes",
    "defibrillator:location": "Verwaltungseingang EG",
    "description": "Bei Eingang Gemeindeverwaltung",
    "emergency": "defibrillator",
    "emergency:phone": "144",
    "indoor": "no",
    "opening_hours": "24/7",
    "operator": "Martin Kaiser",
    "phone": "+423 399 20 42",
    "id": "node/9004557482"
  },
  "geometry": {
    "type": "Point",
    "coordinates": [
      9.5466444,
      47.2323843
    ]
  }
},
{
  "type": "Feature",
  "id": "node/9004557487",
  "properties": {
    "access": "yes",
    "defibrillator:location": "Aussenwandschrank bei Tennishaus",
    "description": "24h verfügbar",
    "emergency": "defibrillator",
    "emergency:phone": "144",
    "indoor": "yes",
    "opening_hours": "24/7",
    "operator": "Magnus Büchel, Gemeindepolizei",
    "phone": "+423 377 49 28",
    "id": "node/9004557487"
  },
  "geometry": {
    "type": "Point",
    "coordinates": [
      9.5245671,
      47.2453047
    ]
  }
},
{
  "type": "Feature",
  "id": "node/9004557488",
  "properties": {
    "access": "yes",
    "defibrillator:location": "Aussenwandschrank bei Sportareal Widau",
    "description": "24h verfügbar",
    "emergency": "defibrillator",
    "emergency:phone": "144",
    "indoor": "yes",
    "opening_hours": "24/7",
    "operator": "Rainer Spalt - Helmut Schweniger",
    "phone": "+423 791 76 04",
    "id": "node/9004557488"
  },
  "geometry": {
    "type": "Point",
    "coordinates": [
      9.5280057,
      47.2472803
    ]
  }
},
{
  "type": "Feature",
  "id": "node/9088806217",
  "properties": {
    "access": "yes",
    "defibrillator:location": "Gemeindehaus Gamprin, gegenüber Bankomat",
    "emergency": "defibrillator",
    "emergency:phone": "144",
    "indoor": "no",
    "opening_hours": "24/7",
    "operator": "Gemeinde Gamprin-Bendern",
    "id": "node/9088806217"
  },
  "geometry": {
    "type": "Point",
    "coordinates": [
      9.5106176,
      47.2184097
    ]
  }
},
{
  "type": "Feature",
  "id": "node/9088810017",
  "properties": {
    "access": "yes",
    "defibrillator:location": "Gemeindeschulen Gamprin, gegenüber Eingang Aula",
    "emergency": "defibrillator",
    "emergency:phone": "144",
    "indoor": "no",
    "opening_hours": "24/7",
    "operator": "Gemeinde Gamprin-Bendern",
    "id": "node/9088810017"
  },
  "geometry": {
    "type": "Point",
    "coordinates": [
      9.5109559,
      47.2197109
    ]
  }
},
{
  "type": "Feature",
  "id": "node/9088810018",
  "properties": {
    "access": "yes",
    "defibrillator:location": "Post Bendern",
    "emergency": "defibrillator",
    "emergency:phone": "144",
    "indoor": "no",
    "opening_hours": "24/7",
    "operator": "Gemeinde Gamprin-Bendern",
    "id": "node/9088810018"
  },
  "geometry": {
    "type": "Point",
    "coordinates": [
      9.5029242,
      47.2105658
    ]
  }
},
{
  "type": "Feature",
  "id": "node/9088812017",
  "properties": {
    "access": "yes",
    "defibrillator:location": "Freizeitanlage Grossabünt",
    "emergency": "defibrillator",
    "emergency:phone": "144",
    "indoor": "no",
    "opening_hours": "24/7",
    "operator": "Gemeinde Gamprin-Bendern",
    "id": "node/9088812017"
  },
  "geometry": {
    "type": "Point",
    "coordinates": [
      9.5057481,
      47.2177819
    ]
  }
},
{
  "type": "Feature",
  "id": "node/9088820717",
  "properties": {
    "access": "yes",
    "defibrillator:location": "Bongert / Parkplatz Kirche",
    "emergency": "defibrillator",
    "emergency:phone": "144",
    "indoor": "no",
    "opening_hours": "24/7",
    "operator": "Gemeinde Gamprin-Bendern",
    "id": "node/9088820717"
  },
  "geometry": {
    "type": "Point",
    "coordinates": [
      9.5046536,
      47.2120567
    ]
  }
},
{
  "type": "Feature",
  "id": "node/9352008617",
  "properties": {
    "access": "yes",
    "defibrillator:location": "Schulzentrum Planken",
    "description": "Hinter dem Gebäude, öffentlich zugänglich bei den Toiletten",
    "emergency": "defibrillator",
    "emergency:phone": "144",
    "indoor": "no",
    "opening_hours": "24/7",
    "operator": "Feuerwehr Planken",
    "ref": "Schulhaus / Feuerwehrdepot",
    "id": "node/9352008617"
  },
  "geometry": {
    "type": "Point",
    "coordinates": [
      9.5461863,
      47.1857513
    ]
  }
},
{
  "type": "Feature",
  "id": "node/10581038974",
  "properties": {
    "access": "yes",
    "defibrillator:location": "Müller AG, Westfassade Franz-Josef-Öhri-Strasse 32",
    "description": "Aussengehäuse in der Mitte der Westfassade",
    "emergency": "defibrillator",
    "emergency:phone": "144",
    "indoor": "no",
    "level": "0",
    "opening_hours": "24/7",
    "operator": "Müller AG Schreinerei und Innenausbau, Mauren",
    "phone": "+423 377 12 90",
    "source": "local_knowledge, defikarte.ch",
    "id": "node/10581038974"
  },
  "geometry": {
    "type": "Point",
    "coordinates": [
      9.5487982,
      47.2221003
    ]
  }
},
{
  "type": "Feature",
  "id": "node/10599307305",
  "properties": {
    "access": "yes",
    "defibrillator:location": "Rhigass 5, 9487 Gamprin-Bendern",
    "description": "An Aussenfassade neben Gebäudeeingang",
    "emergency": "defibrillator",
    "emergency:phone": "144",
    "indoor": "no",
    "level": "0",
    "opening_hours": "24/7",
    "operator": "Gemeinde Gamprin",
    "id": "node/10599307305"
  },
  "geometry": {
    "type": "Point",
    "coordinates": [
      9.5027666,
      47.2063538
    ]
  }
},
{
  "type": "Feature",
  "id": "node/10720578105",
  "properties": {
    "access": "yes",
    "defibrillator:location": "ARA Bendern",
    "description": "Beim Velounterstand rechts Neben Haupttor",
    "emergency": "defibrillator",
    "emergency:phone": "144",
    "indoor": "no",
    "level": "0",
    "opening_hours": "24/7",
    "operator": "Abwasserzweckverband der Gemeinden Liechtensteins",
    "phone": "+423 377 17 44",
    "source": "local_knowledge, defikarte.ch",
    "id": "node/10720578105"
  },
  "geometry": {
    "type": "Point",
    "coordinates": [
      9.5017303,
      47.2139967
    ]
  }
},
{
  "type": "Feature",
  "id": "node/11296224569",
  "properties": {
    "access": "no",
    "defibrillator:location": "Schluchertreff Malbun",
    "emergency": "defibrillator",
    "emergency:phone": "144",
    "indoor": "no",
    "level": "Parterre",
    "opening_hours": "24/7",
    "operator": "Triesenberg",
    "id": "node/11296224569"
  },
  "geometry": {
    "type": "Point",
    "coordinates": [
      9.6079587,
      47.1033471
    ]
  }
},
{
  "type": "Feature",
  "id": "node/11372865969",
  "properties": {
    "access": "no",
    "defibrillator:location": "Feuerwehr TLF",
    "description": "nur durch Alarmierung erreichbar ",
    "emergency": "defibrillator",
    "emergency:phone": "144",
    "indoor": "yes",
    "level": "Fahrzeug",
    "opening_hours": "24/7",
    "operator": "Feuerwehr Schaan",
    "phone": "+4232377240",
    "id": "node/11372865969"
  },
  "geometry": {
    "type": "Point",
    "coordinates": [
      9.5196759,
      47.1787677
    ]
  }
},
{
  "type": "Feature",
  "id": "node/11401087569",
  "properties": {
    "access": "yes",
    "defibrillator:location": "Sportzentrum Schellenberg ",
    "description": "Bei Haupteingang Sportzentrum ",
    "emergency": "defibrillator",
    "emergency:phone": "144",
    "indoor": "no",
    "opening_hours": "24/7",
    "operator": "Gemeinde Schellenberg ",
    "phone": "+423 399 20 40",
    "source": "local_knowledge, defikarte.ch",
    "id": "node/11401087569"
  },
  "geometry": {
    "type": "Point",
    "coordinates": [
      9.5511425,
      47.2344678
    ]
  }
},
{
  "type": "Feature",
  "id": "node/11409708469",
  "properties": {
    "access": "yes",
    "defibrillator:location": "Gemeindeverwaltung Haupteingang ",
    "description": "Hinter Schiebetüre neben Lift / Alarmgesichert ",
    "emergency": "defibrillator",
    "emergency:phone": "144",
    "indoor": "no",
    "opening_hours": "24/7",
    "operator": "Gemeinde Eschen ",
    "phone": "+4233774999",
    "source": "local_knowledge, defikarte.ch",
    "id": "node/11409708469"
  },
  "geometry": {
    "type": "Point",
    "coordinates": [
      9.5235586,
      47.2124884
    ]
  }
},
{
  "type": "Feature",
  "id": "node/11409708470",
  "properties": {
    "access": "yes",
    "defibrillator:location": "Forstwerkhof Eschen-Nendeln ",
    "description": "Direkt an der Fassade beim Eingang ",
    "emergency": "defibrillator",
    "emergency:phone": "144",
    "indoor": "no",
    "opening_hours": "24/7",
    "operator": "Gemeinde Eschen ",
    "phone": "+4233774999",
    "source": "local_knowledge, defikarte.ch",
    "id": "node/11409708470"
  },
  "geometry": {
    "type": "Point",
    "coordinates": [
      9.5483422,
      47.1963031
    ]
  }
}
]
}
